OBJECT_NAME,OBJECT_ID,EPOCH,MEAN_MOTION,ECCENTRICITY,INCLINATION,RA_OF_ASC_NODE,ARG_OF_PERICENTER,MEAN_ANOMALY,EPHEMERIS_TYPE,CLASSIFICATION_TYPE,NORAD_CAT_ID,ELEMENT_SET_NO,REV_AT_EPOCH,BSTAR,MEAN_MOTION_DOT,MEAN_MOTION_DDOT
SAUDISAT 2,2004-025F,2026-07-15T22:43:42.742272,14.56698464,.00241111,98.5521,197.6738,205.8266,154.1730,0,U,28371,999,16993,.31378067E-4,.91E-6,0
COSMOS 2407,2004-028A,2026-07-15T13:32:14.010720,13.76336626,.00393586,82.9586,53.8137,171.0240,252.8458,0,U,28380,999,10378,.34701635E-4,.49E-6,0
COSMOS 2414,2005-002A,2026-07-15T22:34:27.767424,13.87928431,.00387927,82.9488,21.8909,246.5878,113.1204,0,U,28521,999,8780,.26590125E-4,.47E-6,0
INMARSAT 4-F1,2005-009A,2026-07-15T21:03:33.243840,1.00271112,.0002553,5.2068,42.7892,72.6254,312.2829,0,U,28628,999,7796,0,.2E-6,0
SJ-7,2005-024A,2026-07-15T00:52:53.588640,15.21934117,.00136717,97.7274,226.8954,297.3455,62.6388,0,U,28737,999,15226,.19563587E-3,.4393E-4,0
CUBESAT XI-V,2005-043F,2026-07-15T22:32:39.794208,14.72703396,.0015281,98.3016,353.1708,113.0525,247.2294,0,U,28895,999,10598,.10996359E-3,.649E-5,0
HINODE (SOLAR-B),2006-041A,2026-07-15T22:28:49.262592,14.68658759,.00170857,98.0548,212.6654,192.0706,168.0092,0,U,29479,999,5909,.56678506E-4,.281E-5,0
SHIJIAN-6 02B (SJ-6 02B),2006-046B,2026-07-16T00:05:36.320640,15.01438641,.00133216,97.7143,225.8837,333.5658,26.4885,0,U,29506,999,7506,.44106667E-4,.509E-5,0
DMSP 5D-3 F17 (USA 191),2006-050A,2026-07-15T22:46:46.629984,14.14996229,.0009676,98.7387,202.9316,340.6486,19.4319,0,U,29522,999,1649,.4509618E-5,-.35E-6,0
LAPAN-TUBSAT,2007-001A,2026-07-15T22:33:43.001856,14.85975271,.00135373,98.1346,196.8137,91.5986,268.6779,0,U,29709,999,5542,.2479033E-5,-.36E-6,0
HAIYANG-1B,2007-010A,2026-07-15T22:50:40.639200,14.31033433,.00146601,98.3515,177.6841,113.6997,246.5726,0,U,31113,999,475,.25066611E-4,.24E-6,0
COSMO-SKYMED 2,2007-059A,2026-07-15T22:05:34.035648,14.82150789,.00014581,97.8894,20.1028,94.0682,266.0697,0,U,32376,999,626,.23823659E-4,.137E-5,0
CARTOSAT-2A,2008-021A,2026-07-15T22:19:06.588768,14.79275866,.00124808,97.7620,244.6553,24.9245,335.2567,0,U,32783,999,98305,-.6466071E-5,-.98E-6,0
CUTE-1.7+APD II (CO-65),2008-021C,2026-07-15T22:48:06.688224,15.09705410,.00069476,97.8294,178.9751,296.4052,63.6463,0,U,32785,999,98953,.16607088E-3,.261E-4,0
SEEDS II (CO-66),2008-021J,2026-07-15T23:33:57.844800,15.33682976,.00031554,97.7522,196.2767,154.4118,205.7280,0,U,32791,999,99170,.30950416E-3,.9999E-4,0
YUBILEINY (RS30),2008-025A,2026-07-15T21:49:50.638368,12.43180562,.00186048,82.5059,337.5718,247.3135,112.5978,0,U,32953,999,82326,-.3013769E-3,-.32E-6,0
FENGYUN 3A,2008-026A,2026-07-15T10:51:04.601376,14.19576552,.00096614,98.6886,136.7574,51.1669,309.0369,0,U,32958,999,93941,.3210857E-4,.24E-6,0
HUANJING 1A (HJ-1A),2008-041A,2026-07-15T22:58:24.239136,14.84048210,.00202542,97.6691,181.6860,47.2545,313.0370,0,U,33320,999,96267,.14653493E-4,.71E-6,0
HUANJING 1B (HJ-1B),2008-041B,2026-07-15T22:32:54.141792,14.83368034,.00379861,97.6528,184.7532,88.9191,271.6375,0,U,33321,999,96267,.11503298E-3,.903E-5,0
SHIJIAN-6 03A (SJ-6 03A),2008-053A,2026-07-15T22:25:02.807328,15.17420655,.00093988,97.8394,231.2567,273.2950,86.7207,0,U,33408,999,96732,.11260283E-3,.218E-4,0
SHIJIAN-6 03B (SJ-6 03B),2008-053B,2026-07-15T23:13:11.589600,15.04379957,.00177477,97.8567,217.3365,308.0566,51.9058,0,U,33409,999,96707,.14395199E-4,.136E-5,0
