SAUDISAT 2              
1 28371U 04025F   26196.94702248  .00000091  00000+0  31378-4 0  9997
2 28371  98.5521 197.6738 0024111 205.8266 154.1730 14.56698464169934
COSMOS 2407             
1 28380U 04028A   26196.56405105  .00000049  00000+0  34702-4 0  9997
2 28380  82.9586  53.8137 0039358 171.0240 252.8458 13.76336626103787
COSMOS 2414             
1 28521U 05002A   26196.94059916  .00000047  00000+0  26590-4 0  9998
2 28521  82.9488  21.8909 0038792 246.5878 113.1204 13.87928431 87808
INMARSAT 4-F1           
1 28628U 05009A   26196.87746810  .00000020  00000+0  00000+0 0  9995
2 28628   5.2068  42.7892 0002553  72.6254 312.2829  1.00271112 77963
SJ-7                    
1 28737U 05024A   26196.03673135  .00004393  00000+0  19564-3 0  9996
2 28737  97.7274 226.8954 0013671 297.3455  62.6388 15.21934117152267
CUBESAT XI-V            
1 28895U 05043F   26196.93934947  .00000649  00000+0  10996-3 0  9992
2 28895  98.3016 353.1708 0015281 113.0525 247.2294 14.72703396105987
HINODE (SOLAR-B)        
1 29479U 06041A   26196.93668128  .00000281  00000+0  56679-4 0  9996
2 29479  98.0548 212.6654 0017085 192.0706 168.0092 14.68658759 59097
SHIJIAN-6 02B (SJ-6 02B)
1 29506U 06046B   26197.00389260  .00000509  00000+0  44107-4 0  9994
2 29506  97.7143 225.8837 0013321 333.5658  26.4885 15.01438641 75067
DMSP 5D-3 F17 (USA 191) 
1 29522U 06050A   26196.94915081 -.00000035  00000+0  45096-5 0  9999
2 29522  98.7387 202.9316 0009676 340.6486  19.4319 14.14996229 16490
LAPAN-TUBSAT            
1 29709U 07001A   26196.94008104 -.00000036  00000+0  24790-5 0  9991
2 29709  98.1346 196.8137 0013537  91.5986 268.6779 14.85975271 55422
HAIYANG-1B              
1 31113U 07010A   26196.95185925  .00000024  00000+0  25067-4 0  9994
2 31113  98.3515 177.6841 0014660 113.6997 246.5726 14.31033433  4752
COSMO-SKYMED 2          
1 32376U 07059A   26196.92053282  .00000137  00000+0  23824-4 0  9990
2 32376  97.8894  20.1028 0001458  94.0682 266.0697 14.82150789  6263
CARTOSAT-2A             
1 32783U 08021A   26196.92993737 -.00000098  00000+0 -64661-5 0  9993
2 32783  97.7620 244.6553 0012480  24.9245 335.2567 14.79275866983057
CUTE-1.7+APD II (CO-65) 
1 32785U 08021C   26196.95007741  .00002610  00000+0  16607-3 0  9994
2 32785  97.8294 178.9751 0006947 296.4052  63.6463 15.09705410989532
SEEDS II (CO-66)        
1 32791U 08021J   26196.98191950  .00009999  00000+0  30950-3 0  9994
2 32791  97.7522 196.2767 0003155 154.4118 205.7280 15.33682976991702
YUBILEINY (RS30)        
1 32953U 08025A   26196.90961387 -.00000032  00000+0 -30138-3 0  9998
2 32953  82.5059 337.5718 0018604 247.3135 112.5978 12.43180562823267
FENGYUN 3A              
1 32958U 08026A   26196.45213659  .00000024  00000+0  32109-4 0  9996
2 32958  98.6886 136.7574 0009661  51.1669 309.0369 14.19576552939418
HUANJING 1A (HJ-1A)     
1 33320U 08041A   26196.95722499  .00000071  00000+0  14653-4 0  9995
2 33320  97.6691 181.6860 0020254  47.2545 313.0370 14.84048210962670
HUANJING 1B (HJ-1B)     
1 33321U 08041B   26196.93951553  .00000903  00000+0  11503-3 0  9993
2 33321  97.6528 184.7532 0037986  88.9191 271.6375 14.83368034962671
SHIJIAN-6 03A (SJ-6 03A)
1 33408U 08053A   26196.93406027  .00002180  00000+0  11260-3 0  9992
2 33408  97.8394 231.2567 0009398 273.2950  86.7207 15.17420655967326
SHIJIAN-6 03B (SJ-6 03B)
1 33409U 08053B   26196.96749525  .00000136  00000+0  14395-4 0  9991
2 33409  97.8567 217.3365 0017747 308.0566  51.9058 15.04379957967071
